[{"OBJECT_NAME":"STARLINK-5074","OBJECT_ID":"2023-014AZ","EPOCH":"2026-03-09T09:06:34.770240","MEAN_MOTION":14.98327265,"ECCENTRICITY":0.00027793,"INCLINATION":70.0006,"RA_OF_ASC_NODE":65.0681,"ARG_OF_PERICENTER":261.6292,"MEAN_ANOMALY":98.4552,"EPHEMERIS_TYPE":0,"CLASSIFICATION_TYPE":"U","NORAD_CAT_ID":55438,"ELEMENT_SET_NO":999,"REV_AT_EPOCH":17201,"BSTAR":1.04542e-5,"MEAN_MOTION_DOT":3.2e-7,"MEAN_MOTION_DDOT":0},{"OBJECT_NAME":"TIANPING 3A-01","OBJECT_ID":"2024-189A","EPOCH":"2026-03-09T23:38:12.967584","MEAN_MOTION":15.01001778,"ECCENTRICITY":0.00023202,"INCLINATION":97.5354,"RA_OF_ASC_NODE":92.2908,"ARG_OF_PERICENTER":68.007,"MEAN_ANOMALY":292.1401,"EPHEMERIS_TYPE":0,"CLASSIFICATION_TYPE":"U","NORAD_CAT_ID":61614,"ELEMENT_SET_NO":999,"REV_AT_EPOCH":7560,"BSTAR":0.00039570452,"MEAN_MOTION_DOT":4.995e-5,"MEAN_MOTION_DDOT":0}]
